{
    "links": {
        "self": "http://www.neowsapp.com/rest/v1/neo/54057198?api_key=iIulBulltgU6a56xZRHN4H3l9WmuAYTsLGpBGhQ2"
    },
    "id": "54057198",
    "neo_reference_id": "54057198",
    "name": "(2020 TV3)",
    "designation": "2020 TV3",
    "nasa_jpl_url": "http://ssd.jpl.nasa.gov/sbdb.cgi?sstr=54057198",
    "absolute_magnitude_h": 23.624,
    "estimated_diameter": {
        "kilometers": {
            "estimated_diameter_min": 0.050090455,
            "estimated_diameter_max": 0.1120056624
        },
        "meters": {
            "estimated_diameter_min": 50.090454995,
            "estimated_diameter_max": 112.0056623926
        },
        "miles": {
            "estimated_diameter_min": 0.0311247561,
            "estimated_diameter_max": 0.0695970704
        },
        "feet": {
            "estimated_diameter_min": 164.3387683657,
            "estimated_diameter_max": 367.4726574042
        }
    },
    "is_potentially_hazardous_asteroid": false,
    "close_approach_data": [
        {
            "close_approach_date": "2020-10-18",
            "close_approach_date_full": "2020-Oct-18 06:55",
            "epoch_date_close_approach": 1603004100000,
            "relative_velocity": {
                "kilometers_per_second": "15.0004201973",
                "kilometers_per_hour": "54001.5127102645",
                "miles_per_hour": "33554.4399393308"
            },
            "miss_distance": {
                "astronomical": "0.1013777707",
                "lunar": "39.4359528023",
                "kilometers": "15165898.562068409",
                "miles": "9423652.3859016842"
            },
            "orbiting_body": "Earth"
        }
    ],
    "orbital_data": {
        "orbit_id": "6",
        "orbit_determination_date": "2020-11-13 05:20:51",
        "first_observation_date": "2020-10-11",
        "last_observation_date": "2020-11-12",
        "data_arc_in_days": 32,
        "observations_used": 37,
        "orbit_uncertainty": "7",
        "minimum_orbit_intersection": ".0887629",
        "jupiter_tisserand_invariant": "4.062",
        "epoch_osculation": "2459000.5",
        "eccentricity": ".3600344576732505",
        "semi_major_axis": "1.672096378006987",
        "inclination": "26.0465258715896",
        "ascending_node_longitude": "205.4643887403946",
        "orbital_period": "789.7513665714148",
        "perihelion_distance": "1.070084065373835",
        "perihelion_argument": "198.8337923303897",
        "aphelion_distance": "2.274108690640139",
        "perihelion_time": "2459156.442426820845",
        "mean_anomaly": "288.9152560770813",
        "mean_motion": ".4558396670624137",
        "equinox": "J2000",
        "orbit_class": {
            "orbit_class_type": "AMO",
            "orbit_class_description": "Near-Earth asteroid orbits similar to that of 1221 Amor",
            "orbit_class_range": "1.017 AU < q (perihelion) < 1.3 AU"
        }
    },
    "is_sentry_object": false
}